NORAD_CAT_ID,OBJECT_NAME,OBJECT_TYPE,EPOCH,MEAN_MOTION,ECCENTRICITY,INCLINATION,RA_OF_ASC_NODE,ARG_OF_PERICENTER,MEAN_ANOMALY,BSTAR,MEAN_MOTION_DOT,MEAN_MOTION_DDOT,TLE_LINE0,TLE_LINE1,TLE_LINE2,SEMIMAJOR_AXIS,PERIOD,APOGEE,PERIGEE,DECAYED
53552.0,STARLINK-4495,PAYLOAD,2022-09-01 22:00:00,15.73189623,0.0001002,53.2163,89.7652,46.4601,311.5869,0.00030741,0.00042723,0.0,0 STARLINK-4495,1 53552U 22101AB  22244.91667824  .00042723  00000-0  30741-3 0  9999,2 53552  53.2163  89.7652 0001002  46.4601 311.5869 15.73189623  1305,6727.925,91.534,350.464,349.116,0.0
53552.0,STARLINK-4495,PAYLOAD,2022-09-02 14:00:01,15.73202095,0.0001032999999999,53.2166,86.4641,59.5502,116.4136,0.00015354,0.00020984,0.0,0 STARLINK-4495,1 53552U 22101AB  22245.58334491  .00020984  00000-0  15354-3 0  9992,2 53552  53.2166  86.4641 0001033  59.5502 116.4136 15.73202095  1307,6727.889,91.533,350.449,349.059,0.0
53552.0,STARLINK-4495,PAYLOAD,2022-09-02 22:00:01,15.73213873,0.0001311,53.2163,84.8167,51.3741,213.5945,5.6659e-05,7.343e-05,0.0,0 STARLINK-4495,1 53552U 22101AB  22245.91668981  .00007343  00000-0  56659-4 0  9991,2 53552  53.2163  84.8167 0001311  51.3741 213.5945 15.73213873  1306,6727.856,91.532,350.603,348.839,0.0
53552.0,STARLINK-4495,PAYLOAD,2022-09-03 04:00:00,15.73249233,0.0001298,53.2157,83.5788,53.5725,188.0459,-0.0005845,-0.00082027,0.0,0 STARLINK-4495,1 53552U 22101AB  22246.16667824 -.00082027  00000-0 -58450-3 0  9998,2 53552  53.2157  83.5788 0001298  53.5725 188.0459 15.73249233  2287,6727.755,91.53,350.49300000000005,348.747,0.0
53552.0,STARLINK-4495,PAYLOAD,2022-09-03 14:00:01,15.73251831,0.0001155,53.2163,81.5157,62.0995,20.7233,-0.00029154,-0.00041424,0.0,0 STARLINK-4495,1 53552U 22101AB  22246.58334491 -.00041424  00000-0 -29154-3 0  9990,2 53552  53.2163  81.5157 0001155  62.0995  20.7233 15.73251831  1309,6727.746999999999,91.53,350.389,348.835,0.0
53552.0,STARLINK-4495,PAYLOAD,2022-09-03 22:00:00,15.73182289,0.0001214,53.2166,79.8682,44.9019,126.9021,0.00059421,0.00083543,0.0,0 STARLINK-4495,1 53552U 22101AB  22246.91667824  .00083543  00000-0  59421-3 0  9992,2 53552  53.2166  79.8682 0001214  44.9019 126.9021 15.73182289  1301,6727.946,91.534,350.62699999999984,348.994,0.0
53552.0,STARLINK-4495,PAYLOAD,2022-09-04 06:00:00,15.73278146,0.0001185,53.2166,78.2173,50.1944,210.5453,-0.00053693,-0.00075551,0.0,0 STARLINK-4495,1 53552U 22101AB  22247.25001157 -.00075551  00000-0 -53693-3 0  9998,2 53552  53.2166  78.2173 0001185  50.1944 210.5453 15.73278146  2456,6727.672,91.529,350.335,348.74,0.0
53552.0,STARLINK-4495,PAYLOAD,2022-09-04 14:00:01,15.73242334,0.0001354,53.2167,76.5673,59.4844,290.3037,-0.0004613,-0.00064979,0.0,0 STARLINK-4495,1 53552U 22101AB  22247.58335648 -.00064979  00000-0 -46130-3 0  9999,2 53552  53.2167  76.5673 0001354  59.4844 290.3037 15.73242334  1309,6727.774,91.531,350.55,348.72900000000016,0.0
53552.0,STARLINK-4495,PAYLOAD,2022-09-04 16:00:00,15.73241446,0.0001405,53.2165,76.1556,56.3414,45.6362,-0.00028753,-0.00040849,0.0,0 STARLINK-4495,1 53552U 22101AB  22247.66667824 -.00040849  00000-0 -28753-3 0  9993,2 53552  53.2165  76.1556 0001405  56.3414  45.6362 15.73241446  2529,6727.776999999999,91.531,350.587,348.69699999999995,0.0
53552.0,STARLINK-4495,PAYLOAD,2022-09-04 20:00:01,15.73230669,0.0001506999999999,53.2163,75.3318,51.9097,274.5512,-0.00033722,-0.00047742,0.0,0 STARLINK-4495,1 53552U 22101AB  22247.83334491 -.00047742  00000-0 -33722-3 0  9994,2 53552  53.2163  75.3318 0001507  51.9097 274.5512 15.73230669  1305,6727.808000000001,91.531,350.68699999999984,348.659,0.0
53552.0,STARLINK-4495,PAYLOAD,2022-09-05 04:00:00,15.73212477,0.0001365,53.2158,73.6815,49.3669,6.0484,0.00017173,0.00023561,0.0,0 STARLINK-4495,1 53552U 22101AB  22248.16667824  .00023561  00000-0  17173-3 0  9993,2 53552  53.2158  73.6815 0001365  49.3669   6.0484 15.73212477  2607,6727.86,91.532,350.64300000000014,348.806,0.0
53552.0,STARLINK-4495,PAYLOAD,2022-09-05 14:00:01,15.73240817,0.0001281999999999,53.2162,71.6189,57.0234,199.5776,-0.00027673,-0.00039343,0.0,0 STARLINK-4495,1 53552U 22101AB  22248.58334491 -.00039343  00000-0 -27673-3 0  9993,2 53552  53.2162  71.6189 0001282  57.0234 199.5776 15.73240817  1303,6727.779,91.531,350.506,348.781,0.0
53552.0,STARLINK-4495,PAYLOAD,2022-09-05 20:00:01,15.73197197,0.0001467,53.2162,70.3835,48.9637,184.3359,-0.00051924,-0.00072856,0.0,0 STARLINK-4495,1 53552U 22101AB  22248.83334491 -.00072856  00000-0 -51924-3 0  9993,2 53552  53.2162  70.3835 0001467  48.9637 184.3359 15.73197197  1309,6727.903,91.533,350.755,348.781,0.0
53552.0,STARLINK-4495,PAYLOAD,2022-09-06 14:00:01,15.73139696,0.0001276,53.2164,66.6708,48.4928,114.7452,0.00030313,0.00042025,0.0,0 STARLINK-4495,1 53552U 22101AB  22249.58334491  .00042025  00000-0  30313-3 0  9998,2 53552  53.2164  66.6708 0001276  48.4928 114.7452 15.73139696  1305,6728.066999999999,91.537,350.791,349.074,0.0
53552.0,STARLINK-4495,PAYLOAD,2022-09-06 20:00:01,15.73141455,0.0001468,53.216,65.4352,41.0584,98.8233,0.00044704,0.00062429,0.0,0 STARLINK-4495,1 53552U 22101AB  22249.83334491  .00062429  00000-0  44704-3 0  9995,2 53552  53.2160  65.4352 0001468  41.0584  98.8233 15.73141455  2860,6728.062,91.537,350.915,348.939,0.0
53552.0,STARLINK-4495,PAYLOAD,2022-09-06 22:00:00,15.73136733,0.0001492,53.2159,65.0232,39.1911,212.9129,0.00073343,0.00103306,0.0,0 STARLINK-4495,1 53552U 22101AB  22249.91667824  .00103306  00000-0  73343-3 0  9994,2 53552  53.2159  65.0232 0001492  39.1911 212.9129 15.73136733  1304,6728.076,91.537,350.944,348.93699999999984,0.0
53552.0,STARLINK-4495,PAYLOAD,2022-09-07 14:00:01,15.73246656,0.0001385999999999,53.2158,61.7224,48.5678,21.3859,-0.00025599,-0.00036463,0.0,0 STARLINK-4495,1 53552U 22101AB  22250.58334491 -.00036463  00000-0 -25599-3 0  9991,2 53552  53.2158  61.7224 0001386  48.5678  21.3859 15.73246656  1301,6727.762,91.53,350.56,348.695,0.0
53552.0,STARLINK-4495,PAYLOAD,2022-09-07 22:00:00,15.73201937,0.0001561,53.2159,60.0744,41.2884,117.6047,0.00046251,0.00064798,0.0,0 STARLINK-4495,1 53552U 22101AB  22250.91667824  .00064798  00000-0  46251-3 0  9995,2 53552  53.2159  60.0744 0001561  41.2884 117.6047 15.73201937  3038,6727.89,91.533,350.805,348.704,0.0
53552.0,STARLINK-4495,PAYLOAD,2022-09-08 14:00:01,15.73234732,0.0001516,53.2161,56.7735,43.668,293.1288,-0.00041557,-0.00058625,0.0,0 STARLINK-4495,1 53552U 22101AB  22251.58334491 -.00058625  00000-0 -41557-3 0  9998,2 53552  53.2161  56.7735 0001516  43.6680 293.1288 15.73234732  1307,6727.795999999999,91.531,350.681,348.641,0.0
53552.0,STARLINK-4495,PAYLOAD,2022-09-08 22:00:00,15.73221862,0.0001716,53.2155,55.1251,36.0457,29.7132,2.0836e-05,2.307e-05,0.0,0 STARLINK-4495,1 53552U 22101AB  22251.91667824  .00002307  00000-0  20836-4 0  9996,2 53552  53.2155  55.1251 0001716  36.0457  29.7132 15.73221862  3196,6727.833000000001,91.532,350.852,348.543,0.0
53552.0,STARLINK-4495,PAYLOAD,2022-09-09 14:00:01,15.73198594,0.0001551,53.2159,51.8246,39.8582,203.795,-1.7022e-05,-3.008e-05,0.0,0 STARLINK-4495,1 53552U 22101AB  22252.58334491 -.00003008  00000-0 -17022-4 0  9995,2 53552  53.2159  51.8246 0001551  39.8582 203.7950 15.73198594  3292,6727.899,91.533,350.80800000000005,348.721,0.0
53552.0,STARLINK-4495,PAYLOAD,2022-09-09 22:00:00,15.73163647,0.0001745,53.2159,50.1751,31.735,300.8528,0.00028358,0.00039304,0.0,0 STARLINK-4495,1 53552U 22101AB  22252.91667824  .00039304  00000-0  28358-3 0  9990,2 53552  53.2159  50.1751 0001745  31.7350 300.8528 15.73163647  1305,6727.999,91.535,351.038,348.69,0.0
53552.0,STARLINK-4495,PAYLOAD,2022-09-10 14:00:01,15.73196605,0.0001791,53.2164,46.8758,37.9059,112.5222,7.4069e-05,9.785e-05,0.0,0 STARLINK-4495,1 53552U 22101AB  22253.58334491  .00009785  00000-0  74069-4 0  9996,2 53552  53.2164  46.8758 0001791  37.9059 112.5222 15.73196605  1304,6727.905,91.533,350.975,348.565,0.0
53552.0,STARLINK-4495,PAYLOAD,2022-09-10 20:00:01,15.73197781,0.0001925,53.2164,45.639,31.6594,95.4682,-4.2026e-05,-6.514e-05,0.0,0 STARLINK-4495,1 53552U 22101AB  22253.83334491 -.00006514  00000-0 -42026-4 0  9991,2 53552  53.2164  45.6390 0001925  31.6594  95.4682 15.73197781  3494,6727.901999999999,91.533,351.06199999999984,348.471,0.0
53552.0,STARLINK-4495,PAYLOAD,2022-09-10 22:00:00,15.73189372,0.0001906999999999,53.2159,45.2273,28.7944,210.5712,0.00023598,0.00032612,0.0,0 STARLINK-4495,1 53552U 22101AB  22253.91667824  .00032612  00000-0  23598-3 0  9997,2 53552  53.2159  45.2273 0001907  28.7944 210.5712 15.73189372  1309,6727.925,91.534,351.0730000000001,348.50699999999995,0.0
53552.0,STARLINK-4495,PAYLOAD,2022-09-11 04:00:00,15.73196072,0.000169,53.2162,43.9885,28.7209,187.3416,0.0003982,0.00055627,0.0,0 STARLINK-4495,1 53552U 22101AB  22254.16667824  .00055627  00000-0  39820-3 0  9991,2 53552  53.2162  43.9885 0001690  28.7209 187.3416 15.73196072  3545,6727.906,91.533,350.908,348.634,0.0
53552.0,STARLINK-4495,PAYLOAD,2022-09-11 14:00:01,15.73380721,0.0001735,53.2167,41.9246,31.322,25.9095,-0.0022625999999999,-0.00309187,0.0,0 STARLINK-4495,1 53552U 22101AB  22254.58334491 -.00309187  00000-0 -22626-2 0  9998,2 53552  53.2167  41.9246 0001735  31.3220  25.9095 15.73380721  1300,6727.38,91.523,350.412,348.07800000000015,0.0
53552.0,STARLINK-4495,PAYLOAD,2022-09-11 20:00:01,15.73237803,0.0002049,53.2166,40.6914,30.1095,3.8252,5.3613e-05,6.922e-05,0.0,0 STARLINK-4495,1 53552U 22101AB  22254.83334491  .00006922  00000-0  53613-4 0  9997,2 53552  53.2166  40.6914 0002049  30.1095   3.8252 15.73237803  3644,6727.7869999999975,91.531,351.031,348.274,0.0
53552.0,STARLINK-4495,PAYLOAD,2022-09-11 22:00:00,15.73259238,0.0002056999999999,53.2165,40.2788,29.2951,116.8785,-0.00030429,-0.0004322,0.0,0 STARLINK-4495,1 53552U 22101AB  22254.91667824 -.00043220  00000-0 -30429-3 0  9998,2 53552  53.2165  40.2788 0002057  29.2951 116.8785 15.73259238  1300,6727.726,91.53,350.975,348.207,0.0
